[{"OBJECT_NAME":"STARLINK-35417","OBJECT_ID":"2025-253S","EPOCH":"2026-03-09T10:12:35.316000","MEAN_MOTION":15.27594286,"ECCENTRICITY":0.00028697,"INCLINATION":42.9984,"RA_OF_ASC_NODE":214.0338,"ARG_OF_PERICENTER":291.1795,"MEAN_ANOMALY":68.875,"EPHEMERIS_TYPE":0,"CLASSIFICATION_TYPE":"U","NORAD_CAT_ID":66335,"ELEMENT_SET_NO":999,"REV_AT_EPOCH":2020,"BSTAR":0.0010345601,"MEAN_MOTION_DOT":0.0002833,"MEAN_MOTION_DDOT":0},{"OBJECT_NAME":"CZ-4C R\/B","OBJECT_ID":"2022-069B","EPOCH":"2026-03-09T22:08:25.149120","MEAN_MOTION":15.31915595,"ECCENTRICITY":0.00471341,"INCLINATION":97.9961,"RA_OF_ASC_NODE":42.6953,"ARG_OF_PERICENTER":87.2467,"MEAN_ANOMALY":273.4166,"EPHEMERIS_TYPE":0,"CLASSIFICATION_TYPE":"U","NORAD_CAT_ID":52913,"ELEMENT_SET_NO":999,"REV_AT_EPOCH":20482,"BSTAR":0.00043675127,"MEAN_MOTION_DOT":0.00013855,"MEAN_MOTION_DDOT":0}]
